{"type": "FeatureCollection", "features": [ {"type": "Feature", "properties": {"norad_id": 67151, "name": "KUIPER-00246", "group": "last-30-days", "lat": 51.16083383731785, "lon": 135.3117532184066, "alt_km": 448.92730258234224, "timestamp": "2025-12-26T15:29:38.171448+00:00", "meta": {"OBJECT_NAME": "KUIPER-00246", "OBJECT_ID": "2025-301U", "EPOCH": "2025-12-26T04:12:26.637120", "MEAN_MOTION": 15.35920452, "ECCENTRICITY": 0.00038168, "INCLINATION": 51.8739, "RA_OF_ASC_NODE": 60.3003, "ARG_OF_PERICENTER": 113.2152, "MEAN_ANOMALY": 246.9236, "EPHEMERIS_TYPE": 0, "CLASSIFICATION_TYPE": "U", "NORAD_CAT_ID": 67151, "ELEMENT_SET_NO": 999, "REV_AT_EPOCH": 245, "BSTAR": 0.00056569431, "MEAN_MOTION_DOT": 0.00019754, "MEAN_MOTION_DDOT": 0}, "tle": {"line1": "1 67151U 25301U   25360.17530830  .00019754  00000+0  56569-3 0  9993", "line2": "2 67151  51.8739  60.3003 0003816 113.2152 246.9236 15.35920452  2459"}}, "geometry": {"type": "Point", "coordinates": [135.3117532184066, 51.16083383731785]}}, {"type": "Feature", "properties": {"norad_id": 67152, "name": "KUIPER-00247", "group": "last-30-days", "lat": 5.877797407882378, "lon": 62.826623778273465, "alt_km": 470.3019560138582, "timestamp": "2025-12-26T15:29:38.171458+00:00", "meta": {"OBJECT_NAME": "KUIPER-00247", "OBJECT_ID": "2025-301V", "EPOCH": "2025-12-26T06:04:48.587232", "MEAN_MOTION": 15.33992545, "ECCENTRICITY": 0.0011209, "INCLINATION": 51.8631, "RA_OF_ASC_NODE": 60.0753, "ARG_OF_PERICENTER": 153.8257, "MEAN_ANOMALY": 206.3297, "EPHEMERIS_TYPE": 0, "CLASSIFICATION_TYPE": "U", "NORAD_CAT_ID": 67152, "ELEMENT_SET_NO": 999, "REV_AT_EPOCH": 244, "BSTAR": 0.00060502719, "MEAN_MOTION_DOT": 0.00019909, "MEAN_MOTION_DDOT": 0}, "tle": {"line1": "1 67152U 25301V   25360.25334013  .00019909  00000+0  60503-3 0  9993", "line2": "2 67152  51.8631  60.0753 0011209 153.8257 206.3297 15.33992545  2447"}}, "geometry": {"type": "Point", "coordinates": [62.826623778273465, 5.877797407882378]}}, {"type": "Feature", "properties": {"norad_id": 67153, "name": "KUIPER-00248", "group": "last-30-days", "lat": 24.960493892405513, "lon": 79.5850267102267, "alt_km": 460.811506075921, "timestamp": "2025-12-26T15:29:38.171468+00:00", "meta": {"OBJECT_NAME": "KUIPER-00248", "OBJECT_ID": "2025-301W", "EPOCH": "2025-12-26T05:58:33.638016", "MEAN_MOTION": 15.34678671, "ECCENTRICITY": 0.00086017, "INCLINATION": 51.8675, "RA_OF_ASC_NODE": 60.0478, "ARG_OF_PERICENTER": 141.0231, "MEAN_ANOMALY": 219.1376, "EPHEMERIS_TYPE": 0, "CLASSIFICATION_TYPE": "U", "NORAD_CAT_ID": 67153, "ELEMENT_SET_NO": 999, "REV_AT_EPOCH": 261, "BSTAR": 0.0011839491, "MEAN_MOTION_DOT": 0.00040275, "MEAN_MOTION_DDOT": 0}, "tle": {"line1": "1 67153U 25301W   25360.24900044  .00040275  00000+0  11839-2 0  9993", "line2": "2 67153  51.8675  60.0478 0008601 141.0231 219.1376 15.34678671  2614"}}, "geometry": {"type": "Point", "coordinates": [79.5850267102267, 24.960493892405513]}}, {"type": "Feature", "properties": {"norad_id": 67154, "name": "KUIPER-00249", "group": "last-30-days", "lat": 30.443954456096122, "lon": 85.62103036451009, "alt_km": 458.55108533408657, "timestamp": "2025-12-26T15:29:38.171479+00:00", "meta": {"OBJECT_NAME": "KUIPER-00249", "OBJECT_ID": "2025-301X", "EPOCH": "2025-12-26T05:56:36.570336", "MEAN_MOTION": 15.34800191, "ECCENTRICITY": 0.00081241, "INCLINATION": 51.8648, "RA_OF_ASC_NODE": 60.039, "ARG_OF_PERICENTER": 138.5819, "MEAN_ANOMALY": 221.5784, "EPHEMERIS_TYPE": 0, "CLASSIFICATION_TYPE": "U", "NORAD_CAT_ID": 67154, "ELEMENT_SET_NO": 999, "REV_AT_EPOCH": 244, "BSTAR": 0.00064316628, "MEAN_MOTION_DOT": 0.00021732, "MEAN_MOTION_DDOT": 0}, "tle": {"line1": "1 67154U 25301X   25360.24764549  .00021732  00000+0  64317-3 0  9999", "line2": "2 67154  51.8648  60.0390 0008124 138.5819 221.5784 15.34800191  2446"}}, "geometry": {"type": "Point", "coordinates": [85.62103036451009, 30.443954456096122]}}, {"type": "Feature", "properties": {"norad_id": 67155, "name": "KUIPER-00250", "group": "last-30-days", "lat": 41.952069011675526, "lon": 102.99646304880763, "alt_km": 452.8979528831351, "timestamp": "2025-12-26T15:29:38.171489+00:00", "meta": {"OBJECT_NAME": "KUIPER-00250", "OBJECT_ID": "2025-301Y", "EPOCH": "2025-12-26T05:52:06.673152", "MEAN_MOTION": 15.35346832, "ECCENTRICITY": 0.00061488, "INCLINATION": 51.8713, "RA_OF_ASC_NODE": 60.0166, "ARG_OF_PERICENTER": 129.3318, "MEAN_ANOMALY": 230.8213, "EPHEMERIS_TYPE": 0, "CLASSIFICATION_TYPE": "U", "NORAD_CAT_ID": 67155, "ELEMENT_SET_NO": 999, "REV_AT_EPOCH": 247, "BSTAR": 0.00063511832, "MEAN_MOTION_DOT": 0.00021829, "MEAN_MOTION_DDOT": 0}, "tle": {"line1": "1 67155U 25301Y   25360.24452168  .00021829  00000+0  63512-3 0  9994", "line2": "2 67155  51.8713  60.0166 0006148 129.3318 230.8213 15.35346832  2478"}}, "geometry": {"type": "Point", "coordinates": [102.99646304880763, 41.952069011675526]}}, {"type": "Feature", "properties": {"norad_id": 67156, "name": "KUIPER-00251", "group": "last-30-days", "lat": 27.394109781738095, "lon": 82.15343183974889, "alt_km": 459.50394194515775, "timestamp": "2025-12-26T15:29:38.171499+00:00", "meta": {"OBJECT_NAME": "KUIPER-00251", "OBJECT_ID": "2025-301Z", "EPOCH": "2025-12-26T05:57:43.151904", "MEAN_MOTION": 15.34770603, "ECCENTRICITY": 0.00087754, "INCLINATION": 51.8664, "RA_OF_ASC_NODE": 60.0437, "ARG_OF_PERICENTER": 137.1689, "MEAN_ANOMALY": 222.9982, "EPHEMERIS_TYPE": 0, "CLASSIFICATION_TYPE": "U", "NORAD_CAT_ID": 67156, "ELEMENT_SET_NO": 999, "REV_AT_EPOCH": 263, "BSTAR": 0.00064316717, "MEAN_MOTION_DOT": 0.00021715, "MEAN_MOTION_DDOT": 0}, "tle": {"line1": "1 67156U 25301Z   25360.24841611  .00021715  00000+0  64317-3 0  9998", "line2": "2 67156  51.8664  60.0437 0008775 137.1689 222.9982 15.34770603  2630"}}, "geometry": {"type": "Point", "coordinates": [82.15343183974889, 27.394109781738095]}}, {"type": "Feature", "properties": {"norad_id": 67157, "name": "KUIPER-00252", "group": "last-30-days", "lat": 15.459349776476103, "lon": 70.71216397822586, "alt_km": 465.3430502855517, "timestamp": "2025-12-26T15:29:38.171510+00:00", "meta": {"OBJECT_NAME": "KUIPER-00252", "OBJECT_ID": "2025-301AA", "EPOCH": "2025-12-26T06:01:42.793536", "MEAN_MOTION": 15.34318883, "ECCENTRICITY": 0.00092535, "INCLINATION": 51.8656, "RA_OF_ASC_NODE": 60.0626, "ARG_OF_PERICENTER": 146.233, "MEAN_ANOMALY": 213.9247, "EPHEMERIS_TYPE": 0, "CLASSIFICATION_TYPE": "U", "NORAD_CAT_ID": 67157, "ELEMENT_SET_NO": 999, "REV_AT_EPOCH": 244, "BSTAR": 0.00012046416, "MEAN_MOTION_DOT": 3.688e-05, "MEAN_MOTION_DDOT": 0}, "tle": {"line1": "1 67157U 25301AA  25360.25118974  .00003688  00000+0  12046-3 0  9990", "line2": "2 67157  51.8656  60.0626 0009253 146.2330 213.9247 15.34318883  2449"}}, "geometry": {"type": "Point", "coordinates": [70.71216397822586, 15.459349776476103]}}, {"type": "Feature", "properties": {"norad_id": 67158, "name": "KUIPER-00261", "group": "last-30-days", "lat": 45.01744535591202, "lon": 109.88281730429951, "alt_km": 451.89693927541066, "timestamp": "2025-12-26T15:29:38.171520+00:00", "meta": {"OBJECT_NAME": "KUIPER-00261", "OBJECT_ID": "2025-301AB", "EPOCH": "2025-12-26T05:50:36.829248", "MEAN_MOTION": 15.35416447, "ECCENTRICITY": 0.0005645, "INCLINATION": 51.8698, "RA_OF_ASC_NODE": 60.0105, "ARG_OF_PERICENTER": 128.2621, "MEAN_ANOMALY": 231.8874, "EPHEMERIS_TYPE": 0, "CLASSIFICATION_TYPE": "U", "NORAD_CAT_ID": 67158, "ELEMENT_SET_NO": 999, "REV_AT_EPOCH": 244, "BSTAR": 0.00064709218, "MEAN_MOTION_DOT": 0.00022298, "MEAN_MOTION_DDOT": 0}, "tle": {"line1": "1 67158U 25301AB  25360.24348182  .00022298  00000+0  64709-3 0  9997", "line2": "2 67158  51.8698  60.0105 0005645 128.2621 231.8874 15.35416447  2443"}}, "geometry": {"type": "Point", "coordinates": [109.88281730429951, 45.01744535591202]}}, {"type": "Feature", "properties": {"norad_id": 67159, "name": "KUIPER-00265", "group": "last-30-days", "lat": 50.646427334713486, "lon": 164.7127976910982, "alt_km": 448.5975345646657, "timestamp": "2025-12-26T15:29:38.171530+00:00", "meta": {"OBJECT_NAME": "KUIPER-00265", "OBJECT_ID": "2025-301AC", "EPOCH": "2025-12-26T05:41:32.566272", "MEAN_MOTION": 15.36422107, "ECCENTRICITY": 0.00017541, "INCLINATION": 51.8738, "RA_OF_ASC_NODE": 59.9682, "ARG_OF_PERICENTER": 72.2172, "MEAN_ANOMALY": 287.9006, "EPHEMERIS_TYPE": 0, "CLASSIFICATION_TYPE": "U", "NORAD_CAT_ID": 67159, "ELEMENT_SET_NO": 999, "REV_AT_EPOCH": 247, "BSTAR": 0.0010586335, "MEAN_MOTION_DOT": 0.00038002, "MEAN_MOTION_DDOT": 0}, "tle": {"line1": "1 67159U 25301AC  25360.23718248  .00038002  00000+0  10586-2 0  9994", "line2": "2 67159  51.8738  59.9682 0001754  72.2172 287.9006 15.36422107  2475"}}, "geometry": {"type": "Point", "coordinates": [164.7127976910982, 50.646427334713486]}}, {"type": "Feature", "properties": {"norad_id": 67160, "name": "GALILEO A", "group": "last-30-days", "lat": -50.01779761448195, "lon": -13.899580485178927, "alt_km": 22925.411751352833, "timestamp": "2025-12-26T15:29:38.171541+00:00", "meta": {"OBJECT_NAME": "GALILEO A", "OBJECT_ID": "2025-302A", "EPOCH": "2025-12-18T03:30:19.486368", "MEAN_MOTION": 1.72906186, "ECCENTRICITY": 0.00084238, "INCLINATION": 54.2406, "RA_OF_ASC_NODE": 107.2544, "ARG_OF_PERICENTER": 237.6458, "MEAN_ANOMALY": 122.2317, "EPHEMERIS_TYPE": 0, "CLASSIFICATION_TYPE": "U", "NORAD_CAT_ID": 67160, "ELEMENT_SET_NO": 999, "REV_AT_EPOCH": 2, "BSTAR": 0, "MEAN_MOTION_DOT": -7e-08, "MEAN_MOTION_DDOT": 0}, "tle": {"line1": "1 67160U 25302A   25352.14605887 -.00000007  00000+0  00000+0 0  9994", "line2": "2 67160  54.2406 107.2544 0008423 237.6458 122.2317  1.72906186    28"}}, "geometry": {"type": "Point", "coordinates": [-13.899580485178927, -50.01779761448195]}}]}